BEIJING 1               
1 28890U 05043A   23017.55815795  .00000945  00000+0  19944-3 0  9994
2 28890  98.1384 141.3516 0014358 220.2074 139.8060 14.61595142918419
HJ-1A                   
1 33320U 08041A   23017.49756091  .00001084  00000+0  15634-3 0  9992
2 33320  97.6584  45.2954 0019457 255.1445 104.7636 14.78070481774008
HJ-1B                   
1 33321U 08041B   23017.44556908  .00002344  00000+0  32748-3 0  9998
2 33321  97.6731  49.2409 0032518 274.8548  84.8981 14.78196218773992
YAOGAN 4                
1 33446U 08061A   23017.31409382  .00001605  00000+0  23059-3 0  9991
2 33446  97.8392 316.1901 0016580 157.1785 203.0166 14.77690483761174
DEIMOS-1                
1 35681U 09041A   23017.50156765  .00000919  00000+0  15284-3 0  9996
2 35681  97.6909 222.3451 0000196 175.7823 184.3408 14.72247021723261
UK-DMC 2                
1 35683U 09041C   23017.54685661  .00001416  00000+0  23446-3 0  9996
2 35683  97.7107 184.2882 0001209  69.0297 291.1060 14.71701385722991
RISAT 1                 
1 38248U 12017A   23017.46386067  .00007871  00000+0  44153-3 0  9991
2 38248  97.5485  31.6243 0002530 222.4618 137.6417 15.13633121591199
DMC3-FM1                
1 40715U 15032A   23017.46498724  .00001246  00000+0  16213-3 0  9993
2 40715  97.8204 264.7486 0005881 167.4786 192.6600 14.82375394404993
DMC3-FM2                
1 40716U 15032B   23017.42062613  .00001274  00000+0  16548-3 0  9996
2 40716  97.8251 265.4599 0007707 173.8596 186.2725 14.82389403404991
DMC3-FM3                
1 40717U 15032C   23017.44151458  .00001252  00000+0  16284-3 0  9998
2 40717  97.8287 266.4881 0009326 173.0495 187.0859 14.82365398404999
